{"spkid": "20504800", "covariance": {"epoch": "2457198.5", "labels": ["e", "q", "tp", "node", "peri", "i"], "elements": [{"label": "e", "title": "eccentricity", "value": ".2179659202317156", "units": null, "sigma": 3.16819342354703e-07, "name": "e"}, {"units": "au", "title": "perihelion distance", "value": ".7915515019874428", "name": "q", "sigma": 3.09071676546047e-07, "label": "q"}, {"sigma": 1.76266785379849e-05, "name": "tp", "value": "2457170.874378207608", "title": "time of perihelion passage", "units": "TDB", "label": "tp"}, {"name": "om", "sigma": 9.61811757498547e-06, "units": "deg", "title": "longitude of the ascending node", "value": "351.6122095765651", "label": "node"}, {"title": "argument of perihelion", "value": "252.627849825546", "units": "deg", "name": "w", "sigma": 1.83574940306219e-05, "label": "peri"}, {"label": "i", "title": "inclination", "value": "24.01737171840417", "units": "deg", "sigma": 2.67210147077676e-05, "name": "i"}], "data": [["1.003744956900666E-13", "-9.791736658306434E-14", "-4.789141590098181E-14", "4.981162497413673E-13", "-2.434740590447012E-12", "2.210316227224571E-12"], ["-9.791736658306434E-14", "9.552530124298409E-14", "4.914823195830085E-14", "-4.826146963020543E-13", "2.379510229130859E-12", "-2.145343374771458E-12"], ["-4.789141590098181E-14", "4.914823195830085E-14", "3.10699796281458E-10", "-1.191373135874376E-11", "2.483206940586732E-10", "-7.326809825344572E-11"], ["4.981162497413673E-13", "-4.826146963020543E-13", "-1.191373135874376E-11", "9.250818568624438E-11", "-9.148965811066941E-11", "1.443430268895853E-10"], ["-2.434740590447012E-12", "2.379510229130859E-12", "2.483206940586732E-10", "-9.148965811066941E-11", "3.369975870843178E-10", "-1.917691454304891E-10"], ["2.210316227224571E-12", "-2.145343374771458E-12", "-7.326809825344572E-11", "1.443430268895853E-10", "-1.917691454304891E-10", "7.140126270127341E-10"]]}, "elements": [{"label": "e", "sigma": "3.1725E-7", "name": "e", "title": "eccentricity", "value": ".2178367535160964", "units": null}, {"label": "a", "name": "a", "sigma": "1.3711E-8", "units": "au", "value": "1.012734575074006", "title": "semi-major axis"}, {"value": ".792123763066381", "title": "perihelion distance", "units": "au", "sigma": "3.1073E-7", "name": "q", "label": "q"}, {"label": "i", "value": "24.01845143754611", "title": "inclination; angle with respect to x-y ecliptic plane", "units": "deg", "name": "i", "sigma": "2.6715E-5"}, {"label": "node", "units": "deg", "title": "longitude of the ascending node", "value": "351.5490334327249", "name": "om", "sigma": "9.6715E-6"}, {"sigma": "1.8533E-5", "name": "w", "title": "argument of perihelion", "value": "252.7255738566393", "units": "deg", "label": "peri"}, {"title": "mean anomaly", "value": "299.0850621097091", "units": "deg", "sigma": "8.6338E-5", "name": "ma", "label": "M"}, {"label": "tp", "name": "tp", "sigma": "9.0531E-5", "units": "TDB", "value": "2461263.488778669003", "title": "time of perihelion passage"}, {"name": "per", "sigma": "7.5595E-6", "units": "d", "value": "372.2561510557707", "title": "sidereal orbital period", "label": "period"}, {"label": "n", "sigma": "1.9639E-8", "name": "n", "value": ".9670760281032011", "title": "mean motion", "units": "deg/d"}, {"label": "Q", "units": "au", "title": "aphelion distance", "value": "1.23334538708163", "sigma": "1.6697E-8", "name": "ad"}], "epoch": "2461200.5"}